NORAD_CAT_ID,OBJECT_NAME,OBJECT_TYPE,EPOCH,MEAN_MOTION,ECCENTRICITY,INCLINATION,RA_OF_ASC_NODE,ARG_OF_PERICENTER,MEAN_ANOMALY,BSTAR,MEAN_MOTION_DOT,MEAN_MOTION_DDOT,TLE_LINE0,TLE_LINE1,TLE_LINE2,SEMIMAJOR_AXIS,PERIOD,APOGEE,PERIGEE,DECAYED
53037.0,STARLINK-4153,PAYLOAD,2023-04-15 11:56:46,15.08836533,0.0001293,53.2154,149.0161,98.1651,261.9487,6.017e-05,6.7e-06,0.0,0 STARLINK-4153,1 53037U 22076BD  23105.49776590  .00000670  00000-0  60170-4 0  9994,2 53037  53.2154 149.0161 0001293  98.1651 261.9487 15.08836533 43687,6917.891,95.438,540.65,538.862,0.0
53037.0,STARLINK-4153,PAYLOAD,2023-04-15 19:53:42,15.08842622,0.0001311,53.2155,147.5297,87.646,272.4682,3.3706e-05,2.49e-06,0.0,0 STARLINK-4153,1 53037U 22076BD  23105.82896341  .00000249  00000-0  33706-4 0  9995,2 53037  53.2155 147.5297 0001311  87.6460 272.4682 15.08842622 43278,6917.872,95.437,540.644,538.83,0.0
53037.0,STARLINK-4153,PAYLOAD,2023-04-16 10:12:10,15.08850369,0.0001219,53.2156,144.8531,93.9445,266.1686,0.00018386,2.64e-05,0.0,0 STARLINK-4153,1 53037U 22076BD  23106.42511599  .00002640  00000-0  18386-3 0  9994,2 53037  53.2156 144.8531 0001219  93.9445 266.1686 15.08850369 43361,6917.849,95.437,540.557,538.87,0.0
53037.0,STARLINK-4153,PAYLOAD,2023-04-16 19:44:29,15.0884447,0.0001254,53.2148,143.0695,81.5617,278.5517,9.2256e-05,1.181e-05,0.0,0 STARLINK-4153,1 53037U 22076BD  23106.82256082  .00001181  00000-0  92256-4 0  9999,2 53037  53.2148 143.0695 0001254  81.5617 278.5517 15.08844470 43880,6917.867,95.437,540.599,538.864,0.0
53037.0,STARLINK-4153,PAYLOAD,2023-04-17 08:27:35,15.08835055,0.00012,53.2158,140.6903,80.1408,279.9719,6.9431e-05,8.17e-06,0.0,0 STARLINK-4153,1 53037U 22076BD  23107.35248879  .00000817  00000-0  69431-4 0  9997,2 53037  53.2158 140.6903 0001200  80.1408 279.9719 15.08835055 43967,6917.896,95.438,540.591,538.93,0.0
53037.0,STARLINK-4153,PAYLOAD,2023-04-17 19:35:16,15.08842322,0.0001291,53.2152,138.608,89.6634,270.4507,6.2389e-05,7.05e-06,0.0,0 STARLINK-4153,1 53037U 22076BD  23107.81616416  .00000705  00000-0  62389-4 0  9995,2 53037  53.2152 138.6080 0001291  89.6634 270.4507 15.08842322 44034,6917.873,95.437,540.631,538.845,0.0
53037.0,STARLINK-4153,PAYLOAD,2023-04-18 08:18:21,15.08848484,0.0001332,53.215,136.2287,92.7214,267.3931,3.384e-05,2.51e-06,0.0,0 STARLINK-4153,1 53037U 22076BD  23108.34607954  .00000251  00000-0  33840-4 0  9997,2 53037  53.2150 136.2287 0001332  92.7214 267.3931 15.08848484 43658,6917.854,95.437,540.641,538.798,0.0
53037.0,STARLINK-4153,PAYLOAD,2023-04-19 04:58:22,15.08835147,0.000144,53.2151,132.3635,83.6922,276.4234,7.2436e-05,8.65e-06,0.0,0 STARLINK-4153,1 53037U 22076BD  23109.20720781  .00000865  00000-0  72436-4 0  9992,2 53037  53.2151 132.3635 0001440  83.6922 276.4234 15.08835147 44243,6917.895,95.438,540.756,538.764,0.0
53037.0,STARLINK-4153,PAYLOAD,2023-04-19 08:09:08,15.08836365,0.0001395,53.2153,131.7686,84.7452,275.3699,5.056e-05,5.17e-06,0.0,0 STARLINK-4153,1 53037U 22076BD  23109.33968746  .00000517  00000-0  50560-4 0  9999,2 53037  53.2153 131.7686 0001395  84.7452 275.3699 15.08836365 43800,6917.891,95.438,540.722,538.791,0.0
53037.0,STARLINK-4153,PAYLOAD,2023-04-20 07:59:55,15.08841204,0.0001431,53.2164,127.3087,96.1822,263.9333,2.1655e-05,5.7e-07,0.0,0 STARLINK-4153,1 53037U 22076BD  23110.33328576  .00000057  00000-0  21655-4 0  9994,2 53037  53.2164 127.3087 0001431  96.1822 263.9333 15.08841204 43959,6917.877,95.437,540.732,538.752,0.0
53037.0,STARLINK-4153,PAYLOAD,2023-04-20 17:32:15,15.08835571,0.0001291,53.2164,125.5247,96.8679,263.246,1.9937e-05,2.9e-07,0.0,0 STARLINK-4153,1 53037U 22076BD  23110.73072935  .00000029  00000-0  19937-4 0  9992,2 53037  53.2164 125.5247 0001291  96.8679 263.2460 15.08835571 44010,6917.894,95.438,540.652,538.866,0.0
53037.0,STARLINK-4153,PAYLOAD,2023-04-21 07:50:43,15.08833529,0.0001444,53.2168,122.849,94.744,265.3717,4.6865e-05,4.58e-06,0.0,0 STARLINK-4153,1 53037U 22076BD  23111.32689267  .00000458  00000-0  46865-4 0  9996,2 53037  53.2168 122.8490 0001444  94.7440 265.3717 15.08833529 44106,6917.9,95.438,540.764,538.766,0.0
53037.0,STARLINK-4153,PAYLOAD,2023-04-22 04:30:44,15.08839762,0.0001291,53.2159,118.9829,92.1271,267.9869,7.5721e-05,9.17e-06,0.0,0 STARLINK-4153,1 53037U 22076BD  23112.18800966  .00000917  00000-0  75721-4 0  9995,2 53037  53.2159 118.9829 0001291  92.1271 267.9869 15.08839762 44237,6917.881,95.438,540.639,538.853,0.0
53037.0,STARLINK-4153,PAYLOAD,2023-04-22 17:13:49,15.08835204,0.0001227,53.2156,116.6037,94.5809,265.5323,0.00012772,1.745e-05,0.0,0 STARLINK-4153,1 53037U 22076BD  23112.71793117  .00001745  00000-0  12772-3 0  9999,2 53037  53.2156 116.6037 0001227  94.5809 265.5323 15.08835204 44317,6917.895,95.438,540.609,538.911,0.0
53037.0,STARLINK-4153,PAYLOAD,2023-04-23 10:43:04,15.08834545,0.0001258,53.215,113.3317,89.2544,270.8592,3.6341e-05,2.9e-06,0.0,0 STARLINK-4153,1 53037U 22076BD  23113.44657628  .00000290  00000-0  36341-4 0  9999,2 53037  53.2150 113.3317 0001258  89.2544 270.8592 15.08834545 44883,6917.897,95.438,540.632,538.892,0.0
53037.0,STARLINK-4153,PAYLOAD,2023-04-24 08:58:26,15.08856948,0.0001279,53.2156,109.1685,87.1575,272.9563,0.000139,1.926e-05,0.0,0 STARLINK-4153,1 53037U 22076BD  23114.37391771  .00001926  00000-0  13900-3 0  9998,2 53037  53.2156 109.1685 0001279  87.1575 272.9563 15.08856948 44561,6917.829,95.436,540.578,538.809,0.0
53037.0,STARLINK-4153,PAYLOAD,2023-04-25 05:38:28,15.08838912,0.0001202,53.216,105.3019,83.6749,276.438,6.9087e-05,8.12e-06,0.0,0 STARLINK-4153,1 53037U 22076BD  23115.23504765  .00000812  00000-0  69087-4 0  9994,2 53037  53.2160 105.3019 0001202  83.6749 276.4380 15.08838912 45158,6917.884,95.438,540.58,538.917,0.0
53037.0,STARLINK-4153,PAYLOAD,2023-04-25 08:49:14,15.08834483,0.0001132,53.2163,104.706,78.2351,281.8768,0.00013368,1.84e-05,0.0,0 STARLINK-4153,1 53037U 22076BD  23115.36752763  .00001840  00000-0  13368-3 0  9993,2 53037  53.2163 104.7060 0001132  78.2351 281.8768 15.08834483 44711,6917.897,95.438,540.545,538.979,0.0
53037.0,STARLINK-4153,PAYLOAD,2023-04-26 08:40:02,15.08830648,0.0001413,53.2161,100.2458,88.4531,271.6623,-4.9222e-05,-1.071e-05,0.0,0 STARLINK-4153,1 53037U 22076BD  23116.36113797 -.00001071  00000-0 -49222-4 0  9999,2 53037  53.2161 100.2458 0001413  88.4531 271.6623 15.08830648 44868,6917.909,95.438,540.751,538.796,0.0
53037.0,STARLINK-4153,PAYLOAD,2023-04-27 05:20:02,15.08837925,0.0001006,53.216,96.3815,79.3281,280.7824,7.6116e-05,9.24e-06,0.0,0 STARLINK-4153,1 53037U 22076BD  23117.22225029  .00000924  00000-0  76116-4 0  9993,2 53037  53.2160  96.3815 0001006  79.3281 280.7824 15.08837925 45453,6917.887,95.438,540.448,539.056,0.0
53037.0,STARLINK-4153,PAYLOAD,2023-04-27 08:30:48,15.08852086,0.0001163,53.2162,95.7865,77.0479,283.0643,-3.6173e-05,-8.64e-06,0.0,0 STARLINK-4153,1 53037U 22076BD  23117.35472588 -.00000864  00000-0 -36173-4 0  9995,2 53037  53.2162  95.7865 0001163  77.0479 283.0643 15.08852086 45013,6917.843,95.437,540.513,538.904,0.0
53037.0,STARLINK-4153,PAYLOAD,2023-04-28 05:10:49,15.08828132,0.0001218,53.2169,91.9206,91.2467,268.8665,0.00024182,3.562e-05,0.0,0 STARLINK-4153,1 53037U 22076BD  23118.21585349  .00003562  00000-0  24182-3 0  9993,2 53037  53.2169  91.9206 0001218  91.2467 268.8665 15.08828132 45608,6917.917,95.438,540.624,538.939,0.0
53037.0,STARLINK-4153,PAYLOAD,2023-04-29 06:37:00,15.08841045,0.0001271,53.2177,87.1657,96.0428,264.0709,-7.0974e-06,-4.01e-06,0.0,0 STARLINK-4153,1 53037U 22076BD  23119.27569461 -.00000401  00000-0 -70974-5 0  9990,2 53037  53.2177  87.1657 0001271  96.0428 264.0709 15.08841045 45305,6917.877,95.437,540.621,538.863,0.0
53037.0,STARLINK-4153,PAYLOAD,2023-04-30 08:03:10,15.08844405,0.0001188,53.2168,82.4059,89.8143,270.2986,1.7772e-05,-5e-08,0.0,0 STARLINK-4153,1 53037U 22076BD  23120.33553292 -.00000005  00000-0  17772-4 0  9999,2 53037  53.2168  82.4059 0001188  89.8143 270.2986 15.08844405 45927,6917.867,95.437,540.554,538.91,0.0
53037.0,STARLINK-4153,PAYLOAD,2023-04-30 20:46:15,15.08832072,0.000151,53.2165,80.0262,82.4873,277.6291,2.9601e-05,1.83e-06,0.0,0 STARLINK-4153,1 53037U 22076BD  23120.86546267  .00000183  00000-0  29601-4 0  9991,2 53037  53.2165  80.0262 0001510  82.4873 277.6291 15.08832072 46009,6917.905,95.438,540.814,538.725,0.0
53037.0,STARLINK-4153,PAYLOAD,2023-05-01 06:18:35,15.08831314,0.000126,53.2167,78.2412,88.5301,271.5835,-1.0376e-05,-4.53e-06,0.0,0 STARLINK-4153,1 53037U 22076BD  23121.26290617 -.00000453  00000-0 -10376-4 0  9992,2 53037  53.2167  78.2412 0001260  88.5301 271.5835 15.08831314 45602,6917.907,95.438,540.644,538.9,0.0
53037.0,STARLINK-4153,PAYLOAD,2023-05-02 06:09:21,15.08848709,0.0001191,53.2172,73.7797,90.426,269.6868,8.9412e-05,1.136e-05,0.0,0 STARLINK-4153,1 53037U 22076BD  23122.25649367  .00001136  00000-0  89412-4 0  9996,2 53037  53.2172  73.7797 0001191  90.4260 269.6868 15.08848709 46211,6917.854,95.437,540.543,538.895,0.0
53037.0,STARLINK-4153,PAYLOAD,2023-05-02 14:06:17,15.08843974,0.0001294,53.218,72.2947,81.6835,278.4303,6.7114e-05,7.8e-06,0.0,0 STARLINK-4153,1 53037U 22076BD  23122.58769733  .00000780  00000-0  67114-4 0  9991,2 53037  53.2180  72.2947 0001294  81.6835 278.4303 15.08843974 45800,6917.868,95.437,540.628,538.838,0.0
53037.0,STARLINK-4153,PAYLOAD,2023-05-02 20:27:49,15.08837866,0.0001374,53.2177,71.1056,80.9774,279.1373,0.00010423,1.371e-05,0.0,0 STARLINK-4153,1 53037U 22076BD  23122.85266084  .00001371  00000-0  10423-3 0  9999,2 53037  53.2177  71.1056 0001374  80.9774 279.1373 15.08837866 45840,6917.887,95.438,540.702,538.801,0.0
53037.0,STARLINK-4153,PAYLOAD,2023-05-03 06:00:08,15.08844087,0.0001156,53.2168,69.3202,84.5973,275.5151,0.00012045,1.63e-05,0.0,0 STARLINK-4153,1 53037U 22076BD  23123.25009573  .00001630  00000-0  12045-3 0  9992,2 53037  53.2168  69.3202 0001156  84.5973 275.5151 15.08844087 45905,6917.868,95.437,540.533,538.933,0.0
